NORAD_CAT_ID,OBJECT_NAME,OBJECT_TYPE,EPOCH,MEAN_MOTION,ECCENTRICITY,INCLINATION,RA_OF_ASC_NODE,ARG_OF_PERICENTER,MEAN_ANOMALY,BSTAR,MEAN_MOTION_DOT,MEAN_MOTION_DDOT,TLE_LINE0,TLE_LINE1,TLE_LINE2,SEMIMAJOR_AXIS,PERIOD,APOGEE,PERIGEE,DECAYED
52268.0,STARLINK-3746,PAYLOAD,2022-10-05 13:02:53,15.08839736,0.0001888,53.2198,325.7351,40.7894,319.3239,-4.5021e-05,-1.005e-05,0.0,0 STARLINK-3746,1 52268U 22041H   22278.54367622 -.00001005  00000-0 -45021-4 0  9992,2 52268  53.2198 325.7351 0001888  40.7894 319.3239 15.08839736 25485,6917.880999999999,95.438,541.052,538.44,0.0
52268.0,STARLINK-3746,PAYLOAD,2022-10-06 09:42:55,15.08831083,0.0001947,53.2197,321.8693,39.3932,320.7201,2.2835e-05,7.5e-07,0.0,0 STARLINK-3746,1 52268U 22041H   22279.40480333  .00000075  00000-0  22835-4 0  9995,2 52268  53.2197 321.8693 0001947  39.3932 320.7201 15.08831083 25610,6917.908,95.438,541.12,538.4259999999998,0.0
52268.0,STARLINK-3746,PAYLOAD,2022-10-06 12:53:41,15.08834178,0.0001954,53.2197,321.2746,39.9876,320.126,4.8347e-05,4.81e-06,0.0,0 STARLINK-3746,1 52268U 22041H   22279.53728128  .00000481  00000-0  48347-4 0  9993,2 52268  53.2197 321.2746 0001954  39.9876 320.1260 15.08834178 25633,6917.898,95.438,541.115,538.411,0.0
52268.0,STARLINK-3746,PAYLOAD,2022-10-07 07:58:15,15.08907528,0.0002472,53.2198,317.7067,37.4146,322.7018,-0.00093376,-0.00015147,0.0,0 STARLINK-3746,1 52268U 22041H   22280.33212761 -.00015147  00000-0 -93376-3 0  9992,2 52268  53.2198 317.7067 0002472  37.4146 322.7018 15.08907528 25751,6917.674,95.433,541.249,537.8290000000002,0.0
52268.0,STARLINK-3746,PAYLOAD,2022-10-07 19:06:00,15.08841321,0.0002028,53.2187,315.6248,38.5687,321.545,0.00019689,2.847e-05,0.0,0 STARLINK-3746,1 52268U 22041H   22280.79584118  .00002847  00000-0  19689-3 0  9996,2 52268  53.2187 315.6248 0002028  38.5687 321.5450 15.08841321 27045,6917.876,95.437,541.144,538.3380000000002,0.0
52268.0,STARLINK-3746,PAYLOAD,2022-10-08 10:59:52,15.08829576,0.0002070999999999,53.2185,312.6514,39.5613,320.553,-4.1634e-05,-9.51e-06,0.0,0 STARLINK-3746,1 52268U 22041H   22281.45824838 -.00000951  00000-0 -41634-4 0  9998,2 52268  53.2185 312.6514 0002071  39.5613 320.5530 15.08829576 27141,6917.9119999999975,95.438,541.21,538.345,0.0
52268.0,STARLINK-3746,PAYLOAD,2022-10-08 18:56:48,15.088381900000002,0.0002076,53.2188,311.1653,42.0475,318.0676,3.8702e-05,3.28e-06,0.0,0 STARLINK-3746,1 52268U 22041H   22281.78944542  .00000328  00000-0  38702-4 0  9997,2 52268  53.2188 311.1653 0002076  42.0475 318.0676 15.08838190 27192,6917.886,95.438,541.187,538.315,0.0
52268.0,STARLINK-3746,PAYLOAD,2022-10-09 02:53:43,15.08849352,0.0002066999999999,53.2188,309.6778,42.8911,317.2242,0.00019416,2.804e-05,0.0,0 STARLINK-3746,1 52268U 22041H   22282.12063956  .00002804  00000-0  19416-3 0  9998,2 52268  53.2188 309.6778 0002067  42.8911 317.2242 15.08849352 27243,6917.852,95.437,541.1469999999998,538.2869999999998,0.0
52268.0,STARLINK-3746,PAYLOAD,2022-10-09 10:50:39,15.08845783,0.0002476,53.2181,308.1919,40.5618,319.5559,0.00028856,4.308e-05,0.0,0 STARLINK-3746,1 52268U 22041H   22282.45184167  .00004308  00000-0  28856-3 0  9991,2 52268  53.2181 308.1919 0002476  40.5618 319.5559 15.08845783 26070,6917.863,95.437,541.441,538.015,0.0
52268.0,STARLINK-3746,PAYLOAD,2022-10-09 18:47:34,15.0883488,0.000218,53.2169,306.7032,43.0326,317.0836,-6.6213e-05,-1.342e-05,0.0,0 STARLINK-3746,1 52268U 22041H   22282.78304342 -.00001342  00000-0 -66213-4 0  9993,2 52268  53.2169 306.7032 0002180  43.0326 317.0836 15.08834880 27340,6917.896,95.438,541.269,538.253,0.0
52268.0,STARLINK-3746,PAYLOAD,2022-10-09 20:22:58,15.08836923,0.0002145,53.218,306.4066,41.9064,318.2092,6.0045e-05,6.67e-06,0.0,0 STARLINK-3746,1 52268U 22041H   22282.84928451  .00000667  00000-0  60045-4 0  9997,2 52268  53.2180 306.4066 0002145  41.9064 318.2092 15.08836923 26137,6917.89,95.438,541.239,538.271,0.0
52268.0,STARLINK-3746,PAYLOAD,2022-10-10 09:06:02,15.08843385,0.0002056,53.2186,304.0284,47.3442,312.7724,0.00015599,2.196e-05,0.0,0 STARLINK-3746,1 52268U 22041H   22283.37920084  .00002196  00000-0  15599-3 0  9992,2 52268  53.2186 304.0284 0002056  47.3442 312.7724 15.08843385 26210,6917.87,95.437,541.1569999999998,538.313,0.0
52268.0,STARLINK-3746,PAYLOAD,2022-10-10 20:13:45,15.08841155,0.0002130999999999,53.2183,301.9474,44.7784,315.338,9.529e-05,1.229e-05,0.0,0 STARLINK-3746,1 52268U 22041H   22283.84288226  .00001229  00000-0  95290-4 0  9992,2 52268  53.2183 301.9474 0002131  44.7784 315.3380 15.08841155 26285,6917.877,95.437,541.216,538.268,0.0
52268.0,STARLINK-3746,PAYLOAD,2022-10-11 04:10:40,15.08836638,0.0002026,53.2181,300.4599,47.2822,312.8341,-3.8094e-05,-8.94e-06,0.0,0 STARLINK-3746,1 52268U 22041H   22284.17408384 -.00000894  00000-0 -38094-4 0  9996,2 52268  53.2181 300.4599 0002026  47.2822 312.8341 15.08836638 27559,6917.891,95.438,541.1569999999998,538.354,0.0
52268.0,STARLINK-3746,PAYLOAD,2022-10-11 10:32:13,15.08829539,0.0001994,53.2187,299.2705,46.83,313.2858,-0.000149,-2.658e-05,0.0,0 STARLINK-3746,1 52268U 22041H   22284.43904965 -.00002658  00000-0 -14900-3 0  9990,2 52268  53.2187 299.2705 0001994  46.8300 313.2858 15.08829539 27592,6917.9119999999975,95.438,541.1569999999998,538.398,0.0
52268.0,STARLINK-3746,PAYLOAD,2022-10-11 12:07:37,15.08834827,0.0002173,53.2196,298.9729,42.5052,317.6109,-8.953200000000001e-05,-1.713e-05,0.0,0 STARLINK-3746,1 52268U 22041H   22284.50529300 -.00001713  00000-0 -89532-4 0  9999,2 52268  53.2196 298.9729 0002173  42.5052 317.6109 15.08834827 26380,6917.896,95.438,541.264,538.258,0.0
52268.0,STARLINK-3746,PAYLOAD,2022-10-11 13:43:00,15.08836266,0.0002177,53.2194,298.6753,43.1384,316.9778,-0.00010281,-1.924e-05,0.0,0 STARLINK-3746,1 52268U 22041H   22284.57153238 -.00001924  00000-0 -10281-3 0  9997,2 52268  53.2194 298.6753 0002177  43.1384 316.9778 15.08836266 26395,6917.892,95.438,541.263,538.251,0.0
52268.0,STARLINK-3746,PAYLOAD,2022-10-12 11:58:24,15.08838287,0.000206,53.2193,294.5126,43.982,316.1335,-6.0960000000000014e-06,-3.85e-06,0.0,0 STARLINK-3746,1 52268U 22041H   22285.49889225 -.00000385  00000-0 -60960-5 0  9992,2 52268  53.2193 294.5126 0002060  43.9820 316.1335 15.08838287 26539,6917.886,95.438,541.1759999999998,538.326,0.0
52268.0,STARLINK-3746,PAYLOAD,2022-10-13 10:13:48,15.08835175,0.0002077,53.2192,290.3496,38.2047,321.9092,9.6258e-05,1.244e-05,0.0,0 STARLINK-3746,1 52268U 22041H   22286.42625514  .00001244  00000-0  96258-4 0  9996,2 52268  53.2192 290.3496 0002077  38.2047 321.9092 15.08835175 26670,6917.895,95.438,541.197,538.323,0.0
52268.0,STARLINK-3746,PAYLOAD,2022-10-14 03:43:02,15.08863656,0.0001996,53.2191,287.0784,28.9027,331.2075,-0.00015355,-2.733e-05,0.0,0 STARLINK-3746,1 52268U 22041H   22287.15488769 -.00002733  00000-0 -15355-3 0  9990,2 52268  53.2191 287.0784 0001996  28.9027 331.2075 15.08863656 28004,6917.808000000001,95.436,541.054,538.2919999999998,0.0
52268.0,STARLINK-3746,PAYLOAD,2022-10-14 11:39:58,15.08835929,0.0001964,53.2189,285.5915,44.0611,316.0537,0.00010411,1.369e-05,0.0,0 STARLINK-3746,1 52268U 22041H   22287.48609647  .00001369  00000-0  10411-3 0  9996,2 52268  53.2189 285.5915 0001964  44.0611 316.0537 15.08835929 26838,6917.893,95.438,541.117,538.399,0.0
52268.0,STARLINK-3746,PAYLOAD,2022-10-15 11:30:46,15.08833307,0.0001952,53.2186,281.1318,39.3854,320.728,3.7463e-05,3.08e-06,0.0,0 STARLINK-3746,1 52268U 22041H   22288.47969969  .00000308  00000-0  37463-4 0  9991,2 52268  53.2186 281.1318 0001952  39.3854 320.7280 15.08833307 26988,6917.901,95.438,541.116,538.415,0.0
52268.0,STARLINK-3746,PAYLOAD,2022-10-16 03:24:37,15.0883517,0.0001996999999999,53.2191,278.1581,38.459,321.6544,-2.8064e-05,-7.35e-06,0.0,0 STARLINK-3746,1 52268U 22041H   22289.14210158 -.00000735  00000-0 -28064-4 0  9998,2 52268  53.2191 278.1581 0001997  38.4590 321.6544 15.08835170 28309,6917.895,95.438,541.1419999999998,538.379,0.0
52268.0,STARLINK-3746,PAYLOAD,2022-10-16 08:10:47,15.08826182,0.0002005999999999,53.219,277.2661,40.7342,319.38,-8.7875e-05,-1.686e-05,0.0,0 STARLINK-3746,1 52268U 22041H   22289.34083020 -.00001686  00000-0 -87875-4 0  9997,2 52268  53.2190 277.2661 0002006  40.7342 319.3800 15.08826182 28335,6917.9230000000025,95.438,541.175,538.4,0.0
52268.0,STARLINK-3746,PAYLOAD,2022-10-16 16:07:42,15.08831395,0.0002106999999999,53.2191,275.7787,42.007,318.1083,-1.833e-05,-5.8e-06,0.0,0 STARLINK-3746,1 52268U 22041H   22289.67202533 -.00000580  00000-0 -18330-4 0  9997,2 52268  53.2191 275.7787 0002107  42.0070 318.1083 15.08831395 27165,6917.906999999997,95.438,541.229,538.314,0.0
52268.0,STARLINK-3746,PAYLOAD,2022-10-17 03:15:24,15.08836879,0.0002034,53.2191,273.6973,40.483,319.6313,0.00010498,1.383e-05,0.0,0 STARLINK-3746,1 52268U 22041H   22290.13570129  .00001383  00000-0  10498-3 0  9995,2 52268  53.2191 273.6973 0002034  40.4830 319.6313 15.08836879 28451,6917.89,95.438,541.1619999999998,538.3480000000002,0.0
52268.0,STARLINK-3746,PAYLOAD,2022-10-17 08:01:33,15.08841742,0.0002049,53.2193,272.8057,43.3861,316.7292,0.00014315,1.991e-05,0.0,0 STARLINK-3746,1 52268U 22041H   22290.33441792  .00001991  00000-0  14315-3 0  9997,2 52268  53.2193 272.8057 0002049  43.3861 316.7292 15.08841742 27266,6917.875,95.437,541.158,538.323,0.0
52268.0,STARLINK-3746,PAYLOAD,2022-10-18 03:06:12,15.08776147,0.000251,53.2192,269.2378,58.0315,302.0921,0.0010088,0.00015776,0.0,0 STARLINK-3746,1 52268U 22041H   22291.12931450  .00015776  00000-0  10088-2 0  9998,2 52268  53.2192 269.2378 0002510  58.0315 302.0921 15.08776147 28603,6918.076,95.442,541.677,538.2040000000002,0.0
52268.0,STARLINK-3746,PAYLOAD,2022-10-18 07:52:21,15.08841482,0.0002234,53.2188,268.3479,39.5238,320.5917,6.6278e-05,7.67e-06,0.0,0 STARLINK-3746,1 52268U 22041H   22291.32802253  .00000767  00000-0  66278-4 0  9996,2 52268  53.2188 268.3479 0002234  39.5238 320.5917 15.08841482 28639,6917.876,95.437,541.286,538.195,0.0
